SIRIUS-1                
1 26390U 00035A   08315.75509031 -.00000044  00000-0  10000-3 0  3846
2 26390  61.7595 256.6392 2667281 270.0497  59.6894  1.00296381 30654
SIRIUS-2                
1 26483U 00051A   08316.41894530  .00000211  00000-0  10000-3 0  1160
2 26483  63.6893 136.7210 2672708 269.3838  60.3306  1.00280084 29991
SIRIUS-3                
1 26626U 00077A   08316.08923753 -.00000134  00000-0  10000-3 0  3347
2 26626  63.8996  16.9116 2659425 269.7838  60.1966  1.00280999 29125
XM-2 (ROCK)             
1 26724U 01012A   08317.49530291 -.00000188  00000-0  10000-3 0  4916
2 26724   0.0855 271.5283 0000604 301.1952 292.3695  1.00270746 28126
XM-1 (ROLL)             
1 26761U 01018A   08317.49530256 -.00000188  00000-0  10000-3 0  2686
2 26761   0.0875 271.4724 0000189 310.6558 283.0399  1.00270652 27597
XM-3 (RHYTHM)           
1 28626U 05008A   08317.49530199 -.00000189  00000-0  10000-3 0  5197
2 28626   0.0069 151.9403 0000161 234.9361 118.3608  1.00269937 13637
XM-4 (BLUES)            
1 29520U 06049A   08315.25623905 -.00000007  00000-0  10000-3 0  2924
2 29520   0.0078 187.3483 0000303  93.9873 105.7456  1.00273460  7552
